{"type": "FeatureCollection", "features": [ {"type": "Feature", "properties": {"norad_id": 33939, "name": "COSMOS 2251 DEB", "group": "cosmos-2251-debris", "lat": 62.58342391663588, "lon": 119.11524287600342, "alt_km": 559.6111840878675, "timestamp": "2025-12-10T07:43:55.172362+00:00", "meta": {"OBJECT_NAME": "COSMOS 2251 DEB", "OBJECT_ID": "1993-036EU", "EPOCH": "2025-12-09T17:01:19.143840", "MEAN_MOTION": 14.99504863, "ECCENTRICITY": 0.0003102, "INCLINATION": 74.0073, "RA_OF_ASC_NODE": 86.7948, "ARG_OF_PERICENTER": 74.1883, "MEAN_ANOMALY": 285.9645, "EPHEMERIS_TYPE": 0, "CLASSIFICATION_TYPE": "U", "NORAD_CAT_ID": 33939, "ELEMENT_SET_NO": 999, "REV_AT_EPOCH": 88707, "BSTAR": 0.0046804, "MEAN_MOTION_DOT": 0.00057925, "MEAN_MOTION_DDOT": 0}, "tle": {"line1": "1 33939U 93036EU  25343.70924935  .00057925  00000+0  46804-2 0  9995", "line2": "2 33939  74.0073  86.7948 0003102  74.1883 285.9645 14.99504863887077"}}, "geometry": {"type": "Point", "coordinates": [119.11524287600342, 62.58342391663588]}}, {"type": "Feature", "properties": {"norad_id": 33940, "name": "COSMOS 2251 DEB", "group": "cosmos-2251-debris", "lat": -13.759710751043487, "lon": -27.88087269225962, "alt_km": 694.6626603654795, "timestamp": "2025-12-10T07:43:55.172372+00:00", "meta": {"OBJECT_NAME": "COSMOS 2251 DEB", "OBJECT_ID": "1993-036EV", "EPOCH": "2025-12-09T17:45:49.461120", "MEAN_MOTION": 14.58744836, "ECCENTRICITY": 0.0011458, "INCLINATION": 74.0399, "RA_OF_ASC_NODE": 149.2082, "ARG_OF_PERICENTER": 228.7655, "MEAN_ANOMALY": 150.3426, "EPHEMERIS_TYPE": 0, "CLASSIFICATION_TYPE": "U", "NORAD_CAT_ID": 33940, "ELEMENT_SET_NO": 999, "REV_AT_EPOCH": 88550, "BSTAR": 0.0017298, "MEAN_MOTION_DOT": 8.065e-05, "MEAN_MOTION_DDOT": 0}, "tle": {"line1": "1 33940U 93036EV  25343.74015580  .00008065  00000+0  17298-2 0  9994", "line2": "2 33940  74.0399 149.2082 0011458 228.7655 150.3426 14.58744836885500"}}, "geometry": {"type": "Point", "coordinates": [-27.88087269225962, -13.759710751043487]}}, {"type": "Feature", "properties": {"norad_id": 33942, "name": "COSMOS 2251 DEB", "group": "cosmos-2251-debris", "lat": -30.917170997054846, "lon": 109.15204826632942, "alt_km": 783.3956121282044, "timestamp": "2025-12-10T07:43:55.172382+00:00", "meta": {"OBJECT_NAME": "COSMOS 2251 DEB", "OBJECT_ID": "1993-036EX", "EPOCH": "2025-12-09T19:11:12.524928", "MEAN_MOTION": 14.37982234, "ECCENTRICITY": 0.0020177, "INCLINATION": 74.0366, "RA_OF_ASC_NODE": 280.2435, "ARG_OF_PERICENTER": 4.1326, "MEAN_ANOMALY": 23.3101, "EPHEMERIS_TYPE": 0, "CLASSIFICATION_TYPE": "U", "NORAD_CAT_ID": 33942, "ELEMENT_SET_NO": 999, "REV_AT_EPOCH": 88092, "BSTAR": 0.00043223, "MEAN_MOTION_DOT": 1.284e-05, "MEAN_MOTION_DDOT": 0}, "tle": {"line1": "1 33942U 93036EX  25343.79945052  .00001284  00000+0  43223-3 0  9991", "line2": "2 33942  74.0366 280.2435 0020177   4.1326  23.3101 14.37982234880926"}}, "geometry": {"type": "Point", "coordinates": [109.15204826632942, -30.917170997054846]}}, {"type": "Feature", "properties": {"norad_id": 33944, "name": "COSMOS 2251 DEB", "group": "cosmos-2251-debris", "lat": 73.7140876843396, "lon": 54.98756598964811, "alt_km": 697.8488275621403, "timestamp": "2025-12-10T07:43:55.172392+00:00", "meta": {"OBJECT_NAME": "COSMOS 2251 DEB", "OBJECT_ID": "1993-036EZ", "EPOCH": "2025-12-09T08:26:22.268832", "MEAN_MOTION": 14.37332524, "ECCENTRICITY": 0.01120558, "INCLINATION": 74.0401, "RA_OF_ASC_NODE": 315.1596, "ARG_OF_PERICENTER": 55.6495, "MEAN_ANOMALY": 56.9297, "EPHEMERIS_TYPE": 0, "CLASSIFICATION_TYPE": "U", "NORAD_CAT_ID": 33944, "ELEMENT_SET_NO": 999, "REV_AT_EPOCH": 87979, "BSTAR": 0.00058921002, "MEAN_MOTION_DOT": 1.864e-05, "MEAN_MOTION_DDOT": 0}, "tle": {"line1": "1 33944U 93036EZ  25343.35164663  .00001864  00000+0  58921-3 0  9991", "line2": "2 33944  74.0401 315.1596 0112055  55.6495  56.9297 14.37332524879791"}}, "geometry": {"type": "Point", "coordinates": [54.98756598964811, 73.7140876843396]}}, {"type": "Feature", "properties": {"norad_id": 33945, "name": "COSMOS 2251 DEB", "group": "cosmos-2251-debris", "lat": -73.98115645482387, "lon": -143.38425330929982, "alt_km": 793.1435541105184, "timestamp": "2025-12-10T07:43:55.172402+00:00", "meta": {"OBJECT_NAME": "COSMOS 2251 DEB", "OBJECT_ID": "1993-036FA", "EPOCH": "2025-12-09T15:25:11.486784", "MEAN_MOTION": 14.34597287, "ECCENTRICITY": 0.0021787, "INCLINATION": 74.0295, "RA_OF_ASC_NODE": 311.9425, "ARG_OF_PERICENTER": 39.2219, "MEAN_ANOMALY": 321.0507, "EPHEMERIS_TYPE": 0, "CLASSIFICATION_TYPE": "U", "NORAD_CAT_ID": 33945, "ELEMENT_SET_NO": 999, "REV_AT_EPOCH": 87971, "BSTAR": 0.00025835, "MEAN_MOTION_DOT": 7.06e-06, "MEAN_MOTION_DDOT": 0}, "tle": {"line1": "1 33945U 93036FA  25343.64249406  .00000706  00000+0  25835-3 0  9995", "line2": "2 33945  74.0295 311.9425 0021787  39.2219 321.0507 14.34597287879719"}}, "geometry": {"type": "Point", "coordinates": [-143.38425330929982, -73.98115645482387]}}, {"type": "Feature", "properties": {"norad_id": 33948, "name": "COSMOS 2251 DEB", "group": "cosmos-2251-debris", "lat": 65.0888137244595, "lon": 91.51816120053512, "alt_km": 764.3430116851823, "timestamp": "2025-12-10T07:43:55.172412+00:00", "meta": {"OBJECT_NAME": "COSMOS 2251 DEB", "OBJECT_ID": "1993-036FD", "EPOCH": "2025-12-09T07:48:44.959968", "MEAN_MOTION": 14.35623304, "ECCENTRICITY": 0.00225633, "INCLINATION": 74.0354, "RA_OF_ASC_NODE": 311.3985, "ARG_OF_PERICENTER": 28.1911, "MEAN_ANOMALY": 332.0458, "EPHEMERIS_TYPE": 0, "CLASSIFICATION_TYPE": "U", "NORAD_CAT_ID": 33948, "ELEMENT_SET_NO": 999, "REV_AT_EPOCH": 87974, "BSTAR": 0.00037266618, "MEAN_MOTION_DOT": 1.052e-05, "MEAN_MOTION_DDOT": 0}, "tle": {"line1": "1 33948U 93036FD  25343.32552037  .00001052  00000+0  37267-3 0  9997", "line2": "2 33948  74.0354 311.3985 0022563  28.1911 332.0458 14.35623304879743"}}, "geometry": {"type": "Point", "coordinates": [91.51816120053512, 65.0888137244595]}}, {"type": "Feature", "properties": {"norad_id": 33971, "name": "COSMOS 2251 DEB", "group": "cosmos-2251-debris", "lat": 36.746265894901335, "lon": 65.85187236893219, "alt_km": 766.8499414049575, "timestamp": "2025-12-10T07:43:55.172423+00:00", "meta": {"OBJECT_NAME": "COSMOS 2251 DEB", "OBJECT_ID": "1993-036FE", "EPOCH": "2025-12-09T05:07:09.829344", "MEAN_MOTION": 14.39716072, "ECCENTRICITY": 0.0018384, "INCLINATION": 74.0252, "RA_OF_ASC_NODE": 260.25, "ARG_OF_PERICENTER": 1.3462, "MEAN_ANOMALY": 155.0762, "EPHEMERIS_TYPE": 0, "CLASSIFICATION_TYPE": "U", "NORAD_CAT_ID": 33971, "ELEMENT_SET_NO": 999, "REV_AT_EPOCH": 88088, "BSTAR": 0.00054716, "MEAN_MOTION_DOT": 1.691e-05, "MEAN_MOTION_DDOT": 0}, "tle": {"line1": "1 33971U 93036FE  25343.21330821  .00001691  00000+0  54716-3 0  9993", "line2": "2 33971  74.0252 260.2500 0018384   1.3462 155.0762 14.39716072880888"}}, "geometry": {"type": "Point", "coordinates": [65.85187236893219, 36.746265894901335]}}, {"type": "Feature", "properties": {"norad_id": 33972, "name": "COSMOS 2251 DEB", "group": "cosmos-2251-debris", "lat": 63.65910923522456, "lon": -20.316022110195433, "alt_km": 790.4490656425805, "timestamp": "2025-12-10T07:43:55.172433+00:00", "meta": {"OBJECT_NAME": "COSMOS 2251 DEB", "OBJECT_ID": "1993-036FF", "EPOCH": "2025-12-08T09:14:11.114304", "MEAN_MOTION": 14.36176822, "ECCENTRICITY": 0.01230842, "INCLINATION": 73.9938, "RA_OF_ASC_NODE": 198.6837, "ARG_OF_PERICENTER": 7.3687, "MEAN_ANOMALY": 170.0122, "EPHEMERIS_TYPE": 0, "CLASSIFICATION_TYPE": "U", "NORAD_CAT_ID": 33972, "ELEMENT_SET_NO": 999, "REV_AT_EPOCH": 87011, "BSTAR": 0.0015608528, "MEAN_MOTION_DOT": 4.938e-05, "MEAN_MOTION_DDOT": 0}, "tle": {"line1": "1 33972U 93036FF  25342.38485086  .00004938  00000+0  15609-2 0  9999", "line2": "2 33972  73.9938 198.6837 0123084   7.3687 170.0122 14.36176822870116"}}, "geometry": {"type": "Point", "coordinates": [-20.316022110195433, 63.65910923522456]}}, {"type": "Feature", "properties": {"norad_id": 33973, "name": "COSMOS 2251 DEB", "group": "cosmos-2251-debris", "lat": 37.68182937580635, "lon": -85.39065997766805, "alt_km": 765.4351474603727, "timestamp": "2025-12-10T07:43:55.172443+00:00", "meta": {"OBJECT_NAME": "COSMOS 2251 DEB", "OBJECT_ID": "1993-036FG", "EPOCH": "2025-12-09T14:32:15.091008", "MEAN_MOTION": 14.4538571, "ECCENTRICITY": 0.004727, "INCLINATION": 74.0079, "RA_OF_ASC_NODE": 108.744, "ARG_OF_PERICENTER": 287.7375, "MEAN_ANOMALY": 86.6082, "EPHEMERIS_TYPE": 0, "CLASSIFICATION_TYPE": "U", "NORAD_CAT_ID": 33973, "ELEMENT_SET_NO": 999, "REV_AT_EPOCH": 88555, "BSTAR": 0.00027525, "MEAN_MOTION_DOT": 9.53e-06, "MEAN_MOTION_DDOT": 0}, "tle": {"line1": "1 33973U 93036FG  25343.60573022  .00000953  00000+0  27525-3 0  9998", "line2": "2 33973  74.0079 108.7440 0047270 287.7375  86.6082 14.45385710885556"}}, "geometry": {"type": "Point", "coordinates": [-85.39065997766805, 37.68182937580635]}}, {"type": "Feature", "properties": {"norad_id": 33975, "name": "COSMOS 2251 DEB", "group": "cosmos-2251-debris", "lat": 64.48607715693016, "lon": -128.81469754222778, "alt_km": 935.1937037156677, "timestamp": "2025-12-10T07:43:55.172453+00:00", "meta": {"OBJECT_NAME": "COSMOS 2251 DEB", "OBJECT_ID": "1993-036FJ", "EPOCH": "2025-12-09T17:28:39.314784", "MEAN_MOTION": 14.00515385, "ECCENTRICITY": 0.0191374, "INCLINATION": 73.8024, "RA_OF_ASC_NODE": 89.7466, "ARG_OF_PERICENTER": 223.0996, "MEAN_ANOMALY": 135.502, "EPHEMERIS_TYPE": 0, "CLASSIFICATION_TYPE": "U", "NORAD_CAT_ID": 33975, "ELEMENT_SET_NO": 999, "REV_AT_EPOCH": 85787, "BSTAR": 0.0011881, "MEAN_MOTION_DOT": 2.041e-05, "MEAN_MOTION_DDOT": 0}, "tle": {"line1": "1 33975U 93036FJ  25343.72823281  .00002041  00000+0  11881-2 0  9995", "line2": "2 33975  73.8024  89.7466 0191374 223.0996 135.5020 14.00515385857872"}}, "geometry": {"type": "Point", "coordinates": [-128.81469754222778, 64.48607715693016]}}]}